STARLETTE               
1 07646U 75010A   20130.54352578 -.00000137  00000-0  28629-5 0  9995
2 07646  49.8248 265.0445 0205726 257.6022 100.1778 13.82307511286126
LAGEOS 1                
1 08820U 76039A   20130.61471566  .00000011  00000-0  00000-0 0  9997
2 08820 109.8232 135.6493 0044285  58.6785 137.4292  6.38664659771060
AJISAI (EGS)            
1 16908U 86061A   20130.55591220 -.00000082  00000-0  10626-3 0  9999
2 16908  50.0069 163.2913 0011388 265.1228 192.2737 12.44492050202891
COSMOS 1989 (ETALON 1)  
1 19751U 89001C   20130.56016128  .00000050  00000-0  00000-0 0  9991
2 19751  64.1824 148.8012 0022651 211.0707 264.2642  2.13156345243845
COSMOS 2024 (ETALON 2)  
1 20026U 89039C   20130.41412083 -.00000075  00000-0  00000-0 0  9991
2 20026  65.4750  26.4593 0018105 221.2600 283.6095  2.13204281240963
LAGEOS 2                
1 22195U 92070B   20130.48938375 -.00000009  00000-0  00000-0 0  9990
2 22195  52.6476 235.7947 0137894 292.1006  12.1613  6.47294004651282
STELLA                  
1 22824U 93061B   20130.57961976 -.00000058  00000-0 -47974-5 0  9994
2 22824  98.9601 120.4436 0005764 212.4109 262.6530 14.27380439386691
LARES                   
1 38077U 12006A   20130.46055156  .00000001  00000-0  24498-3 0  9993
2 38077  69.4890 140.8144 0009455 331.2569  28.7936 12.54931533377421
